[{"OBJECT_NAME":"ONEWEB-0372","OBJECT_ID":"2021-090V","EPOCH":"2026-06-13T05:20:51.849312","MEAN_MOTION":13.20771347,"ECCENTRICITY":0.0001935,"INCLINATION":87.9192,"RA_OF_ASC_NODE":275.2317,"ARG_OF_PERICENTER":101.1614,"MEAN_ANOMALY":258.9737,"EPHEMERIS_TYPE":0,"CLASSIFICATION_TYPE":"U","NORAD_CAT_ID":49298,"ELEMENT_SET_NO":999,"REV_AT_EPOCH":22931,"BSTAR":-6.279300000000001e-05,"MEAN_MOTION_DOT":-1.3e-07,"MEAN_MOTION_DDOT":0.0},{"OBJECT_NAME":"ONEWEB-0373","OBJECT_ID":"2021-090W","EPOCH":"2026-06-13T05:57:26.265888","MEAN_MOTION":13.20771355,"ECCENTRICITY":0.0002073,"INCLINATION":87.919,"RA_OF_ASC_NODE":275.227,"ARG_OF_PERICENTER":100.6021,"MEAN_ANOMALY":259.5346,"EPHEMERIS_TYPE":0,"CLASSIFICATION_TYPE":"U","NORAD_CAT_ID":49299,"ELEMENT_SET_NO":999,"REV_AT_EPOCH":23050,"BSTAR":0.00016059,"MEAN_MOTION_DOT":7.8e-07,"MEAN_MOTION_DDOT":0.0},{"OBJECT_NAME":"ONEWEB-0374","OBJECT_ID":"2021-090X","EPOCH":"2026-06-12T20:32:50.217792","MEAN_MOTION":13.14503439,"ECCENTRICITY":0.0002231,"INCLINATION":87.8962,"RA_OF_ASC_NODE":290.5605,"ARG_OF_PERICENTER":86.4631,"MEAN_ANOMALY":273.6754,"EPHEMERIS_TYPE":0,"CLASSIFICATION_TYPE":"U","NORAD_CAT_ID":49300,"ELEMENT_SET_NO":999,"REV_AT_EPOCH":22699,"BSTAR":-0.00014238,"MEAN_MOTION_DOT":-4e-07,"MEAN_MOTION_DDOT":0.0},{"OBJECT_NAME":"ONEWEB-0375","OBJECT_ID":"2021-090Y","EPOCH":"2026-06-13T07:29:33.876096","MEAN_MOTION":13.20771696,"ECCENTRICITY":0.000237,"INCLINATION":87.9191,"RA_OF_ASC_NODE":275.2059,"ARG_OF_PERICENTER":88.9327,"MEAN_ANOMALY":271.2078,"EPHEMERIS_TYPE":0,"CLASSIFICATION_TYPE":"U","NORAD_CAT_ID":49301,"ELEMENT_SET_NO":999,"REV_AT_EPOCH":23001,"BSTAR":0.00012621,"MEAN_MOTION_DOT":6.4e-07,"MEAN_MOTION_DDOT":0.0},{"OBJECT_NAME":"ONEWEB-0376","OBJECT_ID":"2021-090Z","EPOCH":"2026-06-12T22:37:15.551040","MEAN_MOTION":13.19725163,"ECCENTRICITY":0.0001653,"INCLINATION":87.9172,"RA_OF_ASC_NODE":305.8117,"ARG_OF_PERICENTER":99.7578,"MEAN_ANOMALY":260.3742,"EPHEMERIS_TYPE":0,"CLASSIFICATION_TYPE":"U","NORAD_CAT_ID":49302,"ELEMENT_SET_NO":999,"REV_AT_EPOCH":22589,"BSTAR":-1.6638000000000002e-05,"MEAN_MOTION_DOT":6e-08,"MEAN_MOTION_DDOT":0.0},{"OBJECT_NAME":"ONEWEB-0377","OBJECT_ID":"2021-090AA","EPOCH":"2026-06-13T05:21:15.747552","MEAN_MOTION":13.20781338,"ECCENTRICITY":0.0002189,"INCLINATION":87.9192,"RA_OF_ASC_NODE":275.2257,"ARG_OF_PERICENTER":98.6938,"MEAN_ANOMALY":261.4444,"EPHEMERIS_TYPE":0,"CLASSIFICATION_TYPE":"U","NORAD_CAT_ID":49303,"ELEMENT_SET_NO":999,"REV_AT_EPOCH":22999,"BSTAR":0.0025122,"MEAN_MOTION_DOT":1.035e-05,"MEAN_MOTION_DDOT":0.0},{"OBJECT_NAME":"ONEWEB-0378","OBJECT_ID":"2021-090AB","EPOCH":"2026-06-13T05:50:21.232320","MEAN_MOTION":13.20770542,"ECCENTRICITY":0.0001988,"INCLINATION":87.9187,"RA_OF_ASC_NODE":275.2266,"ARG_OF_PERICENTER":96.4714,"MEAN_ANOMALY":263.6646,"EPHEMERIS_TYPE":0,"CLASSIFICATION_TYPE":"U","NORAD_CAT_ID":49304,"ELEMENT_SET_NO":999,"REV_AT_EPOCH":22926,"BSTAR":0.00017015,"MEAN_MOTION_DOT":8.2e-07,"MEAN_MOTION_DDOT":0.0},{"OBJECT_NAME":"ONEWEB-0379","OBJECT_ID":"2021-090AC","EPOCH":"2026-06-13T07:23:38.117184","MEAN_MOTION":13.14502914,"ECCENTRICITY":0.0001918,"INCLINATION":87.8961,"RA_OF_ASC_NODE":290.4812,"ARG_OF_PERICENTER":96.1202,"MEAN_ANOMALY":264.0147,"EPHEMERIS_TYPE":0,"CLASSIFICATION_TYPE":"U","NORAD_CAT_ID":49305,"ELEMENT_SET_NO":999,"REV_AT_EPOCH":22705,"BSTAR":-0.00047836,"MEAN_MOTION_DOT":-1.65e-06,"MEAN_MOTION_DDOT":0.0},{"OBJECT_NAME":"ONEWEB-0380","OBJECT_ID":"2021-090AD","EPOCH":"2026-06-12T22:32:43.407456","MEAN_MOTION":13.19724705,"ECCENTRICITY":0.0002058,"INCLINATION":87.9165,"RA_OF_ASC_NODE":305.8178,"ARG_OF_PERICENTER":97.4917,"MEAN_ANOMALY":262.6449,"EPHEMERIS_TYPE":0,"CLASSIFICATION_TYPE":"U","NORAD_CAT_ID":49306,"ELEMENT_SET_NO":999,"REV_AT_EPOCH":22586,"BSTAR":-0.00014563,"MEAN_MOTION_DOT":-4.5e-07,"MEAN_MOTION_DDOT":0.0},{"OBJECT_NAME":"ONEWEB-0381","OBJECT_ID":"2021-090AE","EPOCH":"2026-06-12T20:10:46.980192","MEAN_MOTION":13.20771917,"ECCENTRICITY":0.0002106,"INCLINATION":87.9193,"RA_OF_ASC_NODE":275.3065,"ARG_OF_PERICENTER":93.6053,"MEAN_ANOMALY":266.5322,"EPHEMERIS_TYPE":0,"CLASSIFICATION_TYPE":"U","NORAD_CAT_ID":49307,"ELEMENT_SET_NO":999,"REV_AT_EPOCH":22925,"BSTAR":-0.00018066,"MEAN_MOTION_DOT":-6e-07,"MEAN_MOTION_DDOT":0.0},{"OBJECT_NAME":"ONEWEB-0382","OBJECT_ID":"2021-090AF","EPOCH":"2026-06-13T06:45:54.216000","MEAN_MOTION":13.20770674,"ECCENTRICITY":0.0002055,"INCLINATION":87.9188,"RA_OF_ASC_NODE":275.2129,"ARG_OF_PERICENTER":92.5276,"MEAN_ANOMALY":267.6093,"EPHEMERIS_TYPE":0,"CLASSIFICATION_TYPE":"U","NORAD_CAT_ID":49308,"ELEMENT_SET_NO":999,"REV_AT_EPOCH":22930,"BSTAR":0.00032824,"MEAN_MOTION_DOT":1.46e-06,"MEAN_MOTION_DDOT":0.0},{"OBJECT_NAME":"ONEWEB-0383","OBJECT_ID":"2021-090AG","EPOCH":"2026-06-12T20:16:49.296864","MEAN_MOTION":13.14500839,"ECCENTRICITY":0.0001875,"INCLINATION":87.8964,"RA_OF_ASC_NODE":290.5649,"ARG_OF_PERICENTER":95.3894,"MEAN_ANOMALY":264.7449,"EPHEMERIS_TYPE":0,"CLASSIFICATION_TYPE":"U","NORAD_CAT_ID":49309,"ELEMENT_SET_NO":999,"REV_AT_EPOCH":22702,"BSTAR":-0.00066478,"MEAN_MOTION_DOT":-2.34e-06,"MEAN_MOTION_DDOT":0.0},{"OBJECT_NAME":"ONEWEB-0384","OBJECT_ID":"2021-090AH","EPOCH":"2026-06-13T06:29:44.000160","MEAN_MOTION":13.20812055,"ECCENTRICITY":0.0002013,"INCLINATION":87.9194,"RA_OF_ASC_NODE":275.2588,"ARG_OF_PERICENTER":86.4397,"MEAN_ANOMALY":273.6967,"EPHEMERIS_TYPE":0,"CLASSIFICATION_TYPE":"U","NORAD_CAT_ID":49310,"ELEMENT_SET_NO":999,"REV_AT_EPOCH":22931,"BSTAR":0.00019091,"MEAN_MOTION_DOT":9.1e-07,"MEAN_MOTION_DDOT":0.0},{"OBJECT_NAME":"ONEWEB-0385","OBJECT_ID":"2021-090AJ","EPOCH":"2026-06-13T06:36:13.808448","MEAN_MOTION":13.20772763,"ECCENTRICITY":0.0002038,"INCLINATION":87.9191,"RA_OF_ASC_NODE":275.2195,"ARG_OF_PERICENTER":94.6005,"MEAN_ANOMALY":265.5361,"EPHEMERIS_TYPE":0,"CLASSIFICATION_TYPE":"U","NORAD_CAT_ID":49311,"ELEMENT_SET_NO":999,"REV_AT_EPOCH":22928,"BSTAR":0.00024006,"MEAN_MOTION_DOT":1.11e-06,"MEAN_MOTION_DDOT":0.0},{"OBJECT_NAME":"ONEWEB-0386","OBJECT_ID":"2021-090AK","EPOCH":"2026-06-13T05:11:22.945920","MEAN_MOTION":13.20772031,"ECCENTRICITY":0.0001975,"INCLINATION":87.9195,"RA_OF_ASC_NODE":275.222,"ARG_OF_PERICENTER":92.8341,"MEAN_ANOMALY":267.3019,"EPHEMERIS_TYPE":0,"CLASSIFICATION_TYPE":"U","NORAD_CAT_ID":49312,"ELEMENT_SET_NO":999,"REV_AT_EPOCH":22929,"BSTAR":8.1879e-05,"MEAN_MOTION_DOT":4.6e-07,"MEAN_MOTION_DDOT":0.0},{"OBJECT_NAME":"ONEWEB-0387","OBJECT_ID":"2021-090AL","EPOCH":"2026-06-13T06:38:39.306912","MEAN_MOTION":13.20772087,"ECCENTRICITY":0.0002325,"INCLINATION":87.9182,"RA_OF_ASC_NODE":275.2327,"ARG_OF_PERICENTER":97.3292,"MEAN_ANOMALY":262.8106,"EPHEMERIS_TYPE":0,"CLASSIFICATION_TYPE":"U","NORAD_CAT_ID":49313,"ELEMENT_SET_NO":999,"REV_AT_EPOCH":22930,"BSTAR":7.7621e-05,"MEAN_MOTION_DOT":4.5e-07,"MEAN_MOTION_DDOT":0.0}]