ONEWEB-0372             
1 49298U 21090V   26164.22282233 -.00000013  00000+0 -62793-4 0  9993
2 49298  87.9192 275.2317 0001935 101.1614 258.9737 13.20771347229312
ONEWEB-0373             
1 49299U 21090W   26164.24822067  .00000078  00000+0  16059-3 0  9993
2 49299  87.9190 275.2270 0002073 100.6021 259.5346 13.20771355230504
ONEWEB-0374             
1 49300U 21090X   26163.85613678 -.00000040  00000+0 -14238-3 0  9996
2 49300  87.8962 290.5605 0002231  86.4631 273.6754 13.14503439226996
ONEWEB-0375             
1 49301U 21090Y   26164.31219764  .00000064  00000+0  12621-3 0  9995
2 49301  87.9191 275.2059 0002370  88.9327 271.2078 13.20771696230018
ONEWEB-0376             
1 49302U 21090Z   26163.94254110  .00000006  00000+0 -16638-4 0  9998
2 49302  87.9172 305.8117 0001653  99.7578 260.3742 13.19725163225897
ONEWEB-0377             
1 49303U 21090AA  26164.22309893  .00001035  00000+0  25122-2 0  9998
2 49303  87.9192 275.2257 0002189  98.6938 261.4444 13.20781338229992
ONEWEB-0378             
1 49304U 21090AB  26164.24330130  .00000082  00000+0  17015-3 0  9993
2 49304  87.9187 275.2266 0001988  96.4714 263.6646 13.20770542229264
ONEWEB-0379             
1 49305U 21090AC  26164.30808006 -.00000165  00000+0 -47836-3 0  9991
2 49305  87.8961 290.4812 0001918  96.1202 264.0147 13.14502914227057
ONEWEB-0380             
1 49306U 21090AD  26163.93939129 -.00000045  00000+0 -14563-3 0  9999
2 49306  87.9165 305.8178 0002058  97.4917 262.6449 13.19724705225869
ONEWEB-0381             
1 49307U 21090AE  26163.84082153 -.00000060  00000+0 -18066-3 0  9995
2 49307  87.9193 275.3065 0002106  93.6053 266.5322 13.20771917229259
ONEWEB-0382             
1 49308U 21090AF  26164.28187750  .00000146  00000+0  32824-3 0  9995
2 49308  87.9188 275.2129 0002055  92.5276 267.6093 13.20770674229304
ONEWEB-0383             
1 49309U 21090AG  26163.84501501 -.00000234  00000+0 -66478-3 0  9993
2 49309  87.8964 290.5649 0001875  95.3894 264.7449 13.14500839227026
ONEWEB-0384             
1 49310U 21090AH  26164.27064815  .00000091  00000+0  19091-3 0  9993
2 49310  87.9194 275.2588 0002013  86.4397 273.6967 13.20812055229311
ONEWEB-0385             
1 49311U 21090AJ  26164.27515982  .00000111  00000+0  24006-3 0  9995
2 49311  87.9191 275.2195 0002038  94.6005 265.5361 13.20772763229282
ONEWEB-0386             
1 49312U 21090AK  26164.21623780  .00000046  00000+0  81879-4 0  9995
2 49312  87.9195 275.2220 0001975  92.8341 267.3019 13.20772031229297
ONEWEB-0387             
1 49313U 21090AL  26164.27684383  .00000045  00000+0  77621-4 0  9997
2 49313  87.9182 275.2327 0002325  97.3292 262.8106 13.20772087229307
